NORAD_CAT_ID,OBJECT_NAME,OBJECT_TYPE,EPOCH,MEAN_MOTION,ECCENTRICITY,INCLINATION,RA_OF_ASC_NODE,ARG_OF_PERICENTER,MEAN_ANOMALY,BSTAR,MEAN_MOTION_DOT,MEAN_MOTION_DDOT,TLE_LINE0,TLE_LINE1,TLE_LINE2,SEMIMAJOR_AXIS,PERIOD,APOGEE,PERIGEE,DECAYED
53147.0,STARLINK-4094,PAYLOAD,2023-08-26 17:26:34,15.0883701,0.0001465,53.219,10.9252,108.0308,252.0844,4.9364e-05,4.98e-06,0.0,0 STARLINK-4094,1 53147U 22083R   23238.72678482  .00000498  00000-0  49364-4 0  9998,2 53147  53.2190  10.9252 0001465 108.0308 252.0844 15.08837010 62069,6917.89,95.438,540.768,538.741,0.0
53147.0,STARLINK-4094,PAYLOAD,2023-08-27 09:20:25,15.08838136,0.000144,53.2189,7.9513,117.1954,242.9185,-3.6951e-05,-8.76e-06,0.0,0 STARLINK-4094,1 53147U 22083R   23239.38918548 -.00000876  00000-0 -36951-4 0  9991,2 53147  53.2189   7.9513 0001440 117.1954 242.9185 15.08838136 62183,6917.886,95.438,540.747,538.755,0.0
53147.0,STARLINK-4094,PAYLOAD,2023-08-27 17:17:21,15.0883961,0.0001501,53.2201,6.4656,98.1267,261.9895,8.9904e-05,1.143e-05,0.0,0 STARLINK-4094,1 53147U 22083R   23239.72038684  .00001143  00000-0  89904-4 0  9995,2 53147  53.2201   6.4656 0001501  98.1267 261.9895 15.08839610 62236,6917.882,95.438,540.785,538.708,0.0
53147.0,STARLINK-4094,PAYLOAD,2023-08-28 01:14:17,15.08837317,0.0001552,53.2207,4.9791,87.6714,272.4456,6.3095e-05,7.16e-06,0.0,0 STARLINK-4094,1 53147U 22083R   23240.05159031  .00000716  00000-0  63095-4 0  9991,2 53147  53.2207   4.9791 0001552  87.6714 272.4456 15.08837317 62266,6917.889,95.438,540.827,538.68,0.0
53147.0,STARLINK-4094,PAYLOAD,2023-08-28 17:08:08,15.08840324,0.0001263,53.2186,2.0105,95.8746,264.239,0.00014321,1.992e-05,0.0,0 STARLINK-4094,1 53147U 22083R   23240.71398914  .00001992  00000-0  14321-3 0  9993,2 53147  53.2186   2.0105 0001263  95.8746 264.2390 15.08840324 62386,6917.879,95.438,540.618,538.871,0.0
53147.0,STARLINK-4094,PAYLOAD,2023-08-29 15:23:32,15.08847054,0.0001276,53.2176,357.8455,89.2467,270.8671,0.00017181,2.448e-05,0.0,0 STARLINK-4094,1 53147U 22083R   23241.64134650  .00002448  00000-0  17181-3 0  9995,2 53147  53.2176 357.8455 0001276  89.2467 270.8671 15.08847054 62501,6917.859,95.437,540.607,538.841,0.0
53147.0,STARLINK-4094,PAYLOAD,2023-08-30 15:14:18,15.08854917,0.0001338,53.2178,353.3854,84.0211,276.0934,0.00019218,2.773e-05,0.0,0 STARLINK-4094,1 53147U 22083R   23242.63493998  .00002773  00000-0  19218-3 0  9992,2 53147  53.2178 353.3854 0001338  84.0211 276.0934 15.08854917 62670,6917.835,95.437,540.625,538.774,0.0
53147.0,STARLINK-4094,PAYLOAD,2023-08-31 00:46:37,15.08846619,0.000123,53.2181,351.6015,88.0938,272.0195,6.4623e-05,7.41e-06,0.0,0 STARLINK-4094,1 53147U 22083R   23243.03238095  .00000741  00000-0  64623-4 0  9996,2 53147  53.2181 351.6015 0001230  88.0938 272.0195 15.08846619 62715,6917.86,95.437,540.576,538.874,0.0
53147.0,STARLINK-4094,PAYLOAD,2023-08-31 15:05:06,15.08839,0.0001519,53.2174,348.9275,83.1251,276.9914,-6.8595e-05,-1.379e-05,0.0,0 STARLINK-4094,1 53147U 22083R   23243.62854745 -.00001379  00000-0 -68595-4 0  9999,2 53147  53.2174 348.9275 0001519  83.1251 276.9914 15.08839000 62806,6917.883,95.438,540.799,538.698,0.0
53147.0,STARLINK-4094,PAYLOAD,2023-09-01 13:20:30,15.08841089,0.0001346,53.217,344.7628,89.6988,270.4158,1.7917e-05,-3e-08,0.0,0 STARLINK-4094,1 53147U 22083R   23244.55590874 -.00000003  00000-0  17917-4 0  9996,2 53147  53.2170 344.7628 0001346  89.6988 270.4158 15.08841089 62960,6917.877,95.437,540.673,538.811,0.0
53147.0,STARLINK-4094,PAYLOAD,2023-09-01 18:06:39,15.08849065,0.0001593,53.2168,343.8696,89.0161,271.1014,1.4223e-05,-6.2e-07,0.0,0 STARLINK-4094,1 53147U 22083R   23244.75462348 -.00000062  00000-0  14223-4 0  9994,2 53147  53.2168 343.8696 0001593  89.0161 271.1014 15.08849065 62975,6917.853,95.437,540.82,538.616,0.0
53147.0,STARLINK-4094,PAYLOAD,2023-09-02 13:11:16,15.08855163,0.0001355,53.2191,340.3015,99.1962,260.9183,0.00020261,2.939e-05,0.0,0 STARLINK-4094,1 53147U 22083R   23245.54949317  .00002939  00000-0  20261-3 0  9990,2 53147  53.2191 340.3015 0001355  99.1962 260.9183 15.08855163 63111,6917.834,95.437,540.636,538.762,0.0
53147.0,STARLINK-4094,PAYLOAD,2023-09-02 14:46:39,15.08857716,0.0001425,53.2188,340.003,102.2367,257.8785,0.0003026,4.533e-05,0.0,0 STARLINK-4094,1 53147U 22083R   23245.61573600  .00004533  00000-0  30260-3 0  9998,2 53147  53.2188 340.0030 0001425 102.2367 257.8785 15.08857716 63124,6917.826,95.436,540.677,538.705,0.0
53147.0,STARLINK-4094,PAYLOAD,2023-09-03 13:02:03,15.08845497,0.0001886,53.2168,335.8412,93.1831,266.9377,9.2675e-05,1.187e-05,0.0,0 STARLINK-4094,1 53147U 22083R   23246.54310160  .00001187  00000-0  92675-4 0  9992,2 53147  53.2168 335.8412 0001886  93.1831 266.9377 15.08845497 63269,6917.864,95.437,541.033,538.424,0.0
53147.0,STARLINK-4094,PAYLOAD,2023-09-03 14:37:26,15.08848276,0.0001633,53.2183,335.5442,91.5744,268.5436,4.8139e-05,4.78e-06,0.0,0 STARLINK-4094,1 53147U 22083R   23246.60933990  .00000478  00000-0  48139-4 0  9999,2 53147  53.2183 335.5442 0001633  91.5744 268.5436 15.08848276 63252,6917.855,95.437,540.85,538.59,0.0
53147.0,STARLINK-4094,PAYLOAD,2023-09-03 22:34:23,15.08831311,0.0001899,53.2186,334.0564,92.0476,268.0734,-0.00018941,-3.301e-05,0.0,0 STARLINK-4094,1 53147U 22083R   23246.94054785 -.00003301  00000-0 -18941-3 0  9999,2 53147  53.2186 334.0564 0001899  92.0476 268.0734 15.08831311 63300,6917.907,95.438,541.086,538.458,0.0
53147.0,STARLINK-4094,PAYLOAD,2023-09-04 12:52:51,15.08823725,0.0001979,53.2179,331.3813,93.1447,266.9772,-0.00024122,-4.124e-05,0.0,0 STARLINK-4094,1 53147U 22083R   23247.53671287 -.00004124  00000-0 -24122-3 0  9999,2 53147  53.2179 331.3813 0001979  93.1447 266.9772 15.08823725 63419,6917.93,95.439,541.164,538.426,0.0
53147.0,STARLINK-4094,PAYLOAD,2023-09-04 14:28:15,15.08820339,0.0001813,53.2169,331.0851,97.9222,262.1976,-0.00026016,-4.424e-05,0.0,0 STARLINK-4094,1 53147U 22083R   23247.60295501 -.00004424  00000-0 -26016-3 0  9995,2 53147  53.2169 331.0851 0001813  97.9222 262.1976 15.08820339 63408,6917.94,95.439,541.06,538.551,0.0
53147.0,STARLINK-4094,PAYLOAD,2023-09-05 14:19:02,15.08839827,0.0001669,53.2178,326.6254,100.7046,259.4134,0.00022272,3.258e-05,0.0,0 STARLINK-4094,1 53147U 22083R   23248.59655669  .00003258  00000-0  22272-3 0  9991,2 53147  53.2178 326.6254 0001669 100.7046 259.4134 15.08839827 63554,6917.881,95.438,540.901,538.591,0.0
53147.0,STARLINK-4094,PAYLOAD,2023-09-05 22:15:58,15.08842569,0.0001683,53.2181,325.1384,96.5743,263.5441,0.00023703,3.487e-05,0.0,0 STARLINK-4094,1 53147U 22083R   23248.92775726  .00003487  00000-0  23703-3 0  9999,2 53147  53.2181 325.1384 0001683  96.5743 263.5441 15.08842569 63620,6917.873,95.437,540.902,538.573,0.0
53147.0,STARLINK-4094,PAYLOAD,2023-09-06 17:20:35,15.08850703,0.0001516,53.2161,321.5681,96.0972,264.0193,0.00035437,5.358e-05,0.0,0 STARLINK-4094,1 53147U 22083R   23249.72263520  .00005358  00000-0  35437-3 0  9998,2 53147  53.2161 321.5681 0001516  96.0972 264.0193 15.08850703 63744,6917.848,95.437,540.761,538.664,0.0
53147.0,STARLINK-4094,PAYLOAD,2023-09-07 04:28:17,15.08850738,0.0002772,53.2118,319.4866,89.5963,270.5347,0.00015531,2.185e-05,0.0,0 STARLINK-4094,1 53147U 22083R   23250.18631833  .00002185  00000-0  15531-3 0  9994,2 53147  53.2118 319.4866 0002772  89.5963 270.5347 15.08850738 63795,6917.848,95.437,541.63,537.795,0.0
53147.0,STARLINK-4094,PAYLOAD,2023-09-07 09:14:27,15.08837169,0.0001667,53.2148,318.5942,94.1581,265.9601,-6.4605e-05,-1.316e-05,0.0,0 STARLINK-4094,1 53147U 22083R   23250.38503967 -.00001316  00000-0 -64605-4 0  9996,2 53147  53.2148 318.5942 0001667  94.1581 265.9601 15.08837169 63843,6917.889,95.438,540.907,538.601,0.0
53147.0,STARLINK-4094,PAYLOAD,2023-09-07 14:00:36,15.08840718,0.0001656,53.2147,317.7019,96.3947,263.7234,-5.8418e-06,-3.81e-06,0.0,0 STARLINK-4094,1 53147U 22083R   23250.58375978 -.00000381  00000-0 -58418-5 0  9994,2 53147  53.2147 317.7019 0001656  96.3947 263.7234 15.08840718 63859,6917.878,95.438,540.889,538.598,0.0
53147.0,STARLINK-4094,PAYLOAD,2023-09-08 13:51:23,15.08842141,0.0001516,53.2165,313.241,94.5753,265.5412,0.00025113,3.711e-05,0.0,0 STARLINK-4094,1 53147U 22083R   23251.57735821  .00003711  00000-0  25113-3 0  9993,2 53147  53.2165 313.2410 0001516  94.5753 265.5412 15.08842141 64025,6917.874,95.437,540.788,538.69,0.0
53147.0,STARLINK-4094,PAYLOAD,2023-09-08 15:26:47,15.08833844,0.0001578,53.2172,312.9442,91.164,268.9533,0.00063717,9.865e-05,0.0,0 STARLINK-4094,1 53147U 22083R   23251.64360190  .00009865  00000-0  63717-3 0  9992,2 53147  53.2172 312.9442 0001578  91.1640 268.9533 15.08833844 64010,6917.899,95.438,540.856,538.673,0.0
53147.0,STARLINK-4094,PAYLOAD,2023-09-09 10:31:24,15.08843006,0.0001479,53.2167,309.3768,91.2469,268.8693,0.00012747,1.741e-05,0.0,0 STARLINK-4094,1 53147U 22083R   23252.43847925  .00001741  00000-0  12747-3 0  9998,2 53147  53.2167 309.3768 0001479  91.2469 268.8693 15.08843006 64157,6917.871,95.437,540.759,538.713,0.0
53147.0,STARLINK-4094,PAYLOAD,2023-09-10 10:22:11,15.08843858,0.0001408,53.2166,304.9166,97.2198,262.8954,7.3006e-05,8.74e-06,0.0,0 STARLINK-4094,1 53147U 22083R   23253.43207838  .00000874  00000-0  73006-4 0  9994,2 53147  53.2166 304.9166 0001408  97.2198 262.8954 15.08843858 64302,6917.869,95.437,540.708,538.76,0.0
53147.0,STARLINK-4094,PAYLOAD,2023-09-11 02:16:03,15.0883885,0.000143,53.2163,301.9438,90.9537,269.1619,-4.0948e-07,-2.94e-06,0.0,0 STARLINK-4094,1 53147U 22083R   23254.09448123 -.00000294  00000-0 -40948-6 0  9990,2 53147  53.2163 301.9438 0001430  90.9537 269.1619 15.08838850 64382,6917.884,95.438,540.738,538.76,0.0
53147.0,STARLINK-4094,PAYLOAD,2023-09-11 10:12:59,15.08836295,0.0001451,53.2178,300.4577,92.8418,267.274,3.4149e-05,2.56e-06,0.0,0 STARLINK-4094,1 53147U 22083R   23254.42568590  .00000256  00000-0  34149-4 0  9998,2 53147  53.2178 300.4577 0001451  92.8418 267.2740 15.08836295 64451,6917.892,95.438,540.76,538.753,0.0
